[{"OBJECT_NAME":"STARLINK-30954","OBJECT_ID":"2023-180F","EPOCH":"2026-03-09T00:16:29.178048","MEAN_MOTION":15.26752569,"ECCENTRICITY":7.925e-5,"INCLINATION":42.9992,"RA_OF_ASC_NODE":56.2501,"ARG_OF_PERICENTER":248.5691,"MEAN_ANOMALY":111.5076,"EPHEMERIS_TYPE":0,"CLASSIFICATION_TYPE":"U","NORAD_CAT_ID":58407,"ELEMENT_SET_NO":999,"REV_AT_EPOCH":12752,"BSTAR":5.8271801e-5,"MEAN_MOTION_DOT":1.304e-5,"MEAN_MOTION_DDOT":0},{"OBJECT_NAME":"OBJECT G","OBJECT_ID":"2025-155G","EPOCH":"2026-03-09T22:09:56.639808","MEAN_MOTION":15.27590702,"ECCENTRICITY":0.00081871,"INCLINATION":97.4488,"RA_OF_ASC_NODE":37.3259,"ARG_OF_PERICENTER":154.1528,"MEAN_ANOMALY":206.0122,"EPHEMERIS_TYPE":0,"CLASSIFICATION_TYPE":"U","NORAD_CAT_ID":64882,"ELEMENT_SET_NO":999,"REV_AT_EPOCH":6559,"BSTAR":0.0004792617,"MEAN_MOTION_DOT":0.00012876,"MEAN_MOTION_DDOT":0}]
